[{"OBJECT_NAME":"ONEWEB-0627","OBJECT_ID":"2023-004AE","EPOCH":"2026-01-07T20:04:52.773024","MEAN_MOTION":13.17649799,"ECCENTRICITY":0.0002211,"INCLINATION":87.9084,"RA_OF_ASC_NODE":37.7537,"ARG_OF_PERICENTER":105.5331,"MEAN_ANOMALY":254.6045,"EPHEMERIS_TYPE":0,"CLASSIFICATION_TYPE":"U","NORAD_CAT_ID":55168,"ELEMENT_SET_NO":999,"REV_AT_EPOCH":14646,"BSTAR":9.838e-5,"MEAN_MOTION_DOT":5.1e-7,"MEAN_MOTION_DDOT":0},{"OBJECT_NAME":"ONEWEB-0628","OBJECT_ID":"2023-004AF","EPOCH":"2026-01-07T18:33:34.389216","MEAN_MOTION":13.12447487,"ECCENTRICITY":0.0002451,"INCLINATION":87.8927,"RA_OF_ASC_NODE":22.5058,"ARG_OF_PERICENTER":97.3623,"MEAN_ANOMALY":262.7784,"EPHEMERIS_TYPE":0,"CLASSIFICATION_TYPE":"U","NORAD_CAT_ID":55169,"ELEMENT_SET_NO":999,"REV_AT_EPOCH":14699,"BSTAR":0.00031377,"MEAN_MOTION_DOT":1.26e-6,"MEAN_MOTION_DDOT":0},{"OBJECT_NAME":"ONEWEB-0629","OBJECT_ID":"2023-004AG","EPOCH":"2026-01-07T19:29:38.471712","MEAN_MOTION":13.17649979,"ECCENTRICITY":0.0002082,"INCLINATION":87.9086,"RA_OF_ASC_NODE":37.756,"ARG_OF_PERICENTER":89.8568,"MEAN_ANOMALY":270.2802,"EPHEMERIS_TYPE":0,"CLASSIFICATION_TYPE":"U","NORAD_CAT_ID":55170,"ELEMENT_SET_NO":999,"REV_AT_EPOCH":14646,"BSTAR":0.00015523,"MEAN_MOTION_DOT":7.3e-7,"MEAN_MOTION_DDOT":0},{"OBJECT_NAME":"ONEWEB-0631","OBJECT_ID":"2023-004AH","EPOCH":"2026-01-07T16:45:25.872768","MEAN_MOTION":13.18685439,"ECCENTRICITY":0.0001451,"INCLINATION":87.9179,"RA_OF_ASC_NODE":7.2988,"ARG_OF_PERICENTER":105.0589,"MEAN_ANOMALY":255.0704,"EPHEMERIS_TYPE":0,"CLASSIFICATION_TYPE":"U","NORAD_CAT_ID":55171,"ELEMENT_SET_NO":999,"REV_AT_EPOCH":14852,"BSTAR":0.00033801,"MEAN_MOTION_DOT":1.46e-6,"MEAN_MOTION_DDOT":0},{"OBJECT_NAME":"ONEWEB-0709","OBJECT_ID":"2023-004AJ","EPOCH":"2026-01-07T19:53:04.806240","MEAN_MOTION":13.11414915,"ECCENTRICITY":9.13e-5,"INCLINATION":87.8824,"RA_OF_ASC_NODE":53.0124,"ARG_OF_PERICENTER":110.7304,"MEAN_ANOMALY":249.3922,"EPHEMERIS_TYPE":0,"CLASSIFICATION_TYPE":"U","NORAD_CAT_ID":55172,"ELEMENT_SET_NO":999,"REV_AT_EPOCH":14485,"BSTAR":-0.00097579,"MEAN_MOTION_DOT":-3.33e-6,"MEAN_MOTION_DDOT":0},{"OBJECT_NAME":"ONEWEB-0710","OBJECT_ID":"2023-004AK","EPOCH":"2026-01-07T19:50:17.829600","MEAN_MOTION":13.17650211,"ECCENTRICITY":0.0001874,"INCLINATION":87.9085,"RA_OF_ASC_NODE":37.7477,"ARG_OF_PERICENTER":99.4882,"MEAN_ANOMALY":260.6462,"EPHEMERIS_TYPE":0,"CLASSIFICATION_TYPE":"U","NORAD_CAT_ID":55173,"ELEMENT_SET_NO":999,"REV_AT_EPOCH":14646,"BSTAR":0.00023575,"MEAN_MOTION_DOT":1.04e-6,"MEAN_MOTION_DDOT":0},{"OBJECT_NAME":"ONEWEB-0711","OBJECT_ID":"2023-004AL","EPOCH":"2026-01-07T15:31:51.693312","MEAN_MOTION":13.1141948,"ECCENTRICITY":0.0002393,"INCLINATION":87.8835,"RA_OF_ASC_NODE":53.0246,"ARG_OF_PERICENTER":111.2531,"MEAN_ANOMALY":248.8853,"EPHEMERIS_TYPE":0,"CLASSIFICATION_TYPE":"U","NORAD_CAT_ID":55174,"ELEMENT_SET_NO":999,"REV_AT_EPOCH":14479,"BSTAR":0.0013539,"MEAN_MOTION_DOT":4.93e-6,"MEAN_MOTION_DDOT":0},{"OBJECT_NAME":"ONEWEB-0713","OBJECT_ID":"2023-004AM","EPOCH":"2026-01-07T19:38:26.368800","MEAN_MOTION":13.1141579,"ECCENTRICITY":0.0002123,"INCLINATION":87.8828,"RA_OF_ASC_NODE":52.9918,"ARG_OF_PERICENTER":107.2641,"MEAN_ANOMALY":252.8719,"EPHEMERIS_TYPE":0,"CLASSIFICATION_TYPE":"U","NORAD_CAT_ID":55175,"ELEMENT_SET_NO":999,"REV_AT_EPOCH":14480,"BSTAR":0.00038147,"MEAN_MOTION_DOT":1.48e-6,"MEAN_MOTION_DDOT":0},{"OBJECT_NAME":"ONEWEB-0715","OBJECT_ID":"2023-004AN","EPOCH":"2026-01-07T19:31:07.161312","MEAN_MOTION":13.11415495,"ECCENTRICITY":0.0001304,"INCLINATION":87.883,"RA_OF_ASC_NODE":52.9935,"ARG_OF_PERICENTER":120.8462,"MEAN_ANOMALY":239.2794,"EPHEMERIS_TYPE":0,"CLASSIFICATION_TYPE":"U","NORAD_CAT_ID":55176,"ELEMENT_SET_NO":999,"REV_AT_EPOCH":14484,"BSTAR":0.00090227,"MEAN_MOTION_DOT":3.32e-6,"MEAN_MOTION_DDOT":0},{"OBJECT_NAME":"ONEWEB-0716","OBJECT_ID":"2023-004AP","EPOCH":"2026-01-07T14:12:30.891744","MEAN_MOTION":13.17647697,"ECCENTRICITY":0.0001783,"INCLINATION":87.9086,"RA_OF_ASC_NODE":37.7944,"ARG_OF_PERICENTER":87.3656,"MEAN_ANOMALY":272.7679,"EPHEMERIS_TYPE":0,"CLASSIFICATION_TYPE":"U","NORAD_CAT_ID":55177,"ELEMENT_SET_NO":999,"REV_AT_EPOCH":14643,"BSTAR":0.00011299,"MEAN_MOTION_DOT":5.7e-7,"MEAN_MOTION_DDOT":0},{"OBJECT_NAME":"ONEWEB-0717","OBJECT_ID":"2023-004AQ","EPOCH":"2026-01-07T19:16:15.795840","MEAN_MOTION":13.17648502,"ECCENTRICITY":0.0002223,"INCLINATION":87.9097,"RA_OF_ASC_NODE":37.7257,"ARG_OF_PERICENTER":111.4417,"MEAN_ANOMALY":248.6952,"EPHEMERIS_TYPE":0,"CLASSIFICATION_TYPE":"U","NORAD_CAT_ID":55178,"ELEMENT_SET_NO":999,"REV_AT_EPOCH":14651,"BSTAR":2.2061e-5,"MEAN_MOTION_DOT":2.1e-7,"MEAN_MOTION_DDOT":0},{"OBJECT_NAME":"ONEWEB-0719","OBJECT_ID":"2023-004AR","EPOCH":"2026-01-07T19:30:50.601888","MEAN_MOTION":13.17647288,"ECCENTRICITY":0.0001936,"INCLINATION":87.9095,"RA_OF_ASC_NODE":37.7059,"ARG_OF_PERICENTER":90.4526,"MEAN_ANOMALY":269.6827,"EPHEMERIS_TYPE":0,"CLASSIFICATION_TYPE":"U","NORAD_CAT_ID":55179,"ELEMENT_SET_NO":999,"REV_AT_EPOCH":14646,"BSTAR":6.0381e-5,"MEAN_MOTION_DOT":3.6e-7,"MEAN_MOTION_DDOT":0},{"OBJECT_NAME":"ONEWEB-0530","OBJECT_ID":"2023-029A","EPOCH":"2026-01-07T20:45:22.735008","MEAN_MOTION":13.20770902,"ECCENTRICITY":0.0002147,"INCLINATION":87.9222,"RA_OF_ASC_NODE":306.4624,"ARG_OF_PERICENTER":86.3103,"MEAN_ANOMALY":273.8276,"EPHEMERIS_TYPE":0,"CLASSIFICATION_TYPE":"U","NORAD_CAT_ID":55796,"ELEMENT_SET_NO":999,"REV_AT_EPOCH":13998,"BSTAR":-5.4233e-7,"MEAN_MOTION_DOT":1.3e-7,"MEAN_MOTION_DDOT":0},{"OBJECT_NAME":"ONEWEB-0534","OBJECT_ID":"2023-029B","EPOCH":"2026-01-07T20:27:12.790368","MEAN_MOTION":13.20771891,"ECCENTRICITY":0.0001783,"INCLINATION":87.9219,"RA_OF_ASC_NODE":306.4648,"ARG_OF_PERICENTER":72.9894,"MEAN_ANOMALY":287.1435,"EPHEMERIS_TYPE":0,"CLASSIFICATION_TYPE":"U","NORAD_CAT_ID":55797,"ELEMENT_SET_NO":999,"REV_AT_EPOCH":13998,"BSTAR":0.00024349,"MEAN_MOTION_DOT":1.12e-6,"MEAN_MOTION_DDOT":0},{"OBJECT_NAME":"ONEWEB-0556","OBJECT_ID":"2023-029C","EPOCH":"2026-01-07T20:36:16.379424","MEAN_MOTION":13.20770248,"ECCENTRICITY":0.0002591,"INCLINATION":87.9223,"RA_OF_ASC_NODE":306.4644,"ARG_OF_PERICENTER":65.3451,"MEAN_ANOMALY":294.7952,"EPHEMERIS_TYPE":0,"CLASSIFICATION_TYPE":"U","NORAD_CAT_ID":55798,"ELEMENT_SET_NO":999,"REV_AT_EPOCH":13998,"BSTAR":7.5516e-5,"MEAN_MOTION_DOT":4.4e-7,"MEAN_MOTION_DDOT":0},{"OBJECT_NAME":"ONEWEB-0562","OBJECT_ID":"2023-029D","EPOCH":"2026-01-07T20:18:06.570432","MEAN_MOTION":13.20771533,"ECCENTRICITY":0.0002606,"INCLINATION":87.9219,"RA_OF_ASC_NODE":306.4484,"ARG_OF_PERICENTER":83.4679,"MEAN_ANOMALY":276.6751,"EPHEMERIS_TYPE":0,"CLASSIFICATION_TYPE":"U","NORAD_CAT_ID":55799,"ELEMENT_SET_NO":999,"REV_AT_EPOCH":13998,"BSTAR":0.00017049,"MEAN_MOTION_DOT":8.2e-7,"MEAN_MOTION_DDOT":0},{"OBJECT_NAME":"ONEWEB-0563","OBJECT_ID":"2023-029E","EPOCH":"2026-01-07T20:09:01.870272","MEAN_MOTION":13.20771677,"ECCENTRICITY":0.0001795,"INCLINATION":87.9224,"RA_OF_ASC_NODE":306.4782,"ARG_OF_PERICENTER":69.2339,"MEAN_ANOMALY":290.8986,"EPHEMERIS_TYPE":0,"CLASSIFICATION_TYPE":"U","NORAD_CAT_ID":55800,"ELEMENT_SET_NO":999,"REV_AT_EPOCH":13997,"BSTAR":9.8687e-6,"MEAN_MOTION_DOT":1.7e-7,"MEAN_MOTION_DDOT":0}]
