ONEWEB-0627             
1 55168U 23004AE  26007.83672191  .00000051  00000+0  98380-4 0  9993
2 55168  87.9084  37.7537 0002211 105.5331 254.6045 13.17649799146462
ONEWEB-0628             
1 55169U 23004AF  26007.77331469  .00000126  00000+0  31377-3 0  9992
2 55169  87.8927  22.5058 0002451  97.3623 262.7784 13.12447487146999
ONEWEB-0629             
1 55170U 23004AG  26007.81225083  .00000073  00000+0  15523-3 0  9999
2 55170  87.9086  37.7560 0002082  89.8568 270.2802 13.17649979146460
ONEWEB-0631             
1 55171U 23004AH  26007.69821612  .00000146  00000+0  33801-3 0  9996
2 55171  87.9179   7.2988 0001451 105.0589 255.0704 13.18685439148526
ONEWEB-0709             
1 55172U 23004AJ  26007.82852785 -.00000333  00000+0 -97579-3 0  9999
2 55172  87.8824  53.0124 0000913 110.7304 249.3922 13.11414915144856
ONEWEB-0710             
1 55173U 23004AK  26007.82659525  .00000104  00000+0  23575-3 0  9996
2 55173  87.9085  37.7477 0001874  99.4882 260.6462 13.17650211146469
ONEWEB-0711             
1 55174U 23004AL  26007.64712608  .00000493  00000+0  13539-2 0  9998
2 55174  87.8835  53.0246 0002393 111.2531 248.8853 13.11419480144799
ONEWEB-0713             
1 55175U 23004AM  26007.81836075  .00000148  00000+0  38147-3 0  9993
2 55175  87.8828  52.9918 0002123 107.2641 252.8719 13.11415790144802
ONEWEB-0715             
1 55176U 23004AN  26007.81327733  .00000332  00000+0  90227-3 0  9992
2 55176  87.8830  52.9935 0001304 120.8462 239.2794 13.11415495144845
ONEWEB-0716             
1 55177U 23004AP  26007.59202421  .00000057  00000+0  11299-3 0  9990
2 55177  87.9086  37.7944 0001783  87.3656 272.7679 13.17647697146432
ONEWEB-0717             
1 55178U 23004AQ  26007.80296060  .00000021  00000+0  22061-4 0  9998
2 55178  87.9097  37.7257 0002223 111.4417 248.6952 13.17648502146517
ONEWEB-0719             
1 55179U 23004AR  26007.81308567  .00000036  00000+0  60381-4 0  9999
2 55179  87.9095  37.7059 0001936  90.4526 269.6827 13.17647288146461
ONEWEB-0530             
1 55796U 23029A   26007.86484647  .00000013  00000+0 -54233-6 0  9997
2 55796  87.9222 306.4624 0002147  86.3103 273.8276 13.20770902139980
ONEWEB-0534             
1 55797U 23029B   26007.85223137  .00000112  00000+0  24349-3 0  9993
2 55797  87.9219 306.4648 0001783  72.9894 287.1435 13.20771891139989
ONEWEB-0556             
1 55798U 23029C   26007.85852291  .00000044  00000+0  75516-4 0  9990
2 55798  87.9223 306.4644 0002591  65.3451 294.7952 13.20770248139987
ONEWEB-0562             
1 55799U 23029D   26007.84590938  .00000082  00000+0  17049-3 0  9995
2 55799  87.9219 306.4484 0002606  83.4679 276.6751 13.20771533139989
ONEWEB-0563             
1 55800U 23029E   26007.83960498  .00000017  00000+0  98687-5 0  9996
2 55800  87.9224 306.4782 0001795  69.2339 290.8986 13.20771677139978
